[
    {
        "Altitude(m)": 611965.236182425,
        "Argument of Periapsis(deg)": 0.0,
        "Eccentricity": 0.0,
        "Inclination(deg)": 60.0,
        "Latitude(deg)": 59.14031563257962,
        "Longitude(deg)": 103.96982629518118,
        "Mean Anomaly(deg)": 81.8182,
        "RAAN(deg)": 130.0,
        "Satellite Name": "Test1 577",
        "Satellite Number": 577,
        "Semi-Major Axis(m)": 6980739.136638005,
        "Time(s)": 0
    },
    {
        "Altitude(m)": 611995.8615079204,
        "Argument of Periapsis(deg)": 0.00010418945913296404,
        "Eccentricity": 0.0,
        "Inclination(deg)": 60.0,
        "Latitude(deg)": 59.283415484430314,
        "Longitude(deg)": 105.10319363279555,
        "Mean Anomaly(deg)": 82.43830614546184,
        "RAAN(deg)": 129.99957995086024,
        "Satellite Name": "Test1 577",
        "Satellite Number": 577,
        "Semi-Major Axis(m)": 6980739.136638005,
        "Time(s)": 10
    }
]